{
  "type": "FeatureCollection",
  "features": [
    {
      "type": "Feature",
      "properties": {
        "norad_id": 32197,
        "name": "FENGYUN 1C DEB",
        "group": "fengyun-1c-debris",
        "lat": 52.435395769513505,
        "lon": 101.5716312647136,
        "alt_km": 724.3938584601683,
        "timestamp": "2025-12-26T08:37:54.866112+00:00",
        "meta_object_name": "FENGYUN 1C DEB",
        "meta_object_id": "1999-025CUT",
        "meta_epoch": "2025-12-21T14:37:07.256064",
        "meta_mean_motion": 14.3268413,
        "meta_eccentricity": 0.0161343,
        "meta_inclination": 98.9021,
        "meta_ra_of_asc_node": 264.9335,
        "meta_arg_of_pericenter": 203.7564,
        "meta_mean_anomaly": 276.5587,
        "meta_ephemeris_type": 0,
        "meta_classification_type": "U",
        "meta_norad_cat_id": 32197,
        "meta_element_set_no": 999,
        "meta_rev_at_epoch": 94550,
        "meta_bstar": 0.00025366,
        "meta_mean_motion_dot": 7.46e-06,
        "meta_mean_motion_ddot": 0,
        "tle_line1": "1 32197U 99025CUT 25355.60911176  .00000746  00000+0  25366-3 0  9999",
        "tle_line2": "2 32197  98.9021 264.9335 0161343 203.7564 276.5587 14.32684130945505"
      },
      "geometry": {
        "type": "Point",
        "coordinates": [
          101.5716312647136,
          52.435395769513505
        ]
      }
    },
    {
      "type": "Feature",
      "properties": {
        "norad_id": 32198,
        "name": "FENGYUN 1C DEB",
        "group": "fengyun-1c-debris",
        "lat": 45.64995506320577,
        "lon": 137.6107985388017,
        "alt_km": 919.8503435979837,
        "timestamp": "2025-12-26T08:37:54.866122+00:00",
        "meta_object_name": "FENGYUN 1C DEB",
        "meta_object_id": "1999-025CUU",
        "meta_epoch": "2025-12-24T03:34:24.985056",
        "meta_mean_motion": 14.08898866,
        "meta_eccentricity": 0.00943864,
        "meta_inclination": 98.3432,
        "meta_ra_of_asc_node": 144.1972,
        "meta_arg_of_pericenter": 259.6989,
        "meta_mean_anomaly": 99.353,
        "meta_ephemeris_type": 0,
        "meta_classification_type": "U",
        "meta_norad_cat_id": 32198,
        "meta_element_set_no": 999,
        "meta_rev_at_epoch": 57106,
        "meta_bstar": 0.0019643407,
        "meta_mean_motion_dot": 3.499e-05,
        "meta_mean_motion_ddot": 0,
        "tle_line1": "1 32198U 99025CUU 25358.14890029  .00003499  00000+0  19643-2 0  9993",
        "tle_line2": "2 32198  98.3432 144.1972 0094386 259.6989  99.3530 14.08898866571066"
      },
      "geometry": {
        "type": "Point",
        "coordinates": [
          137.6107985388017,
          45.64995506320577
        ]
      }
    },
    {
      "type": "Feature",
      "properties": {
        "norad_id": 32200,
        "name": "FENGYUN 1C DEB",
        "group": "fengyun-1c-debris",
        "lat": -63.95557676533186,
        "lon": 67.60072837046454,
        "alt_km": 826.2336597786716,
        "timestamp": "2025-12-26T08:37:54.866132+00:00",
        "meta_object_name": "FENGYUN 1C DEB",
        "meta_object_id": "1999-025CUW",
        "meta_epoch": "2025-12-24T14:32:07.690848",
        "meta_mean_motion": 14.15742565,
        "meta_eccentricity": 0.00399843,
        "meta_inclination": 98.7894,
        "meta_ra_of_asc_node": 47.4141,
        "meta_arg_of_pericenter": 255.3373,
        "meta_mean_anomaly": 104.3367,
        "meta_ephemeris_type": 0,
        "meta_classification_type": "U",
        "meta_norad_cat_id": 32200,
        "meta_element_set_no": 999,
        "meta_rev_at_epoch": 94531,
        "meta_bstar": 0.00093039677,
        "meta_mean_motion_dot": 1.796e-05,
        "meta_mean_motion_ddot": 0,
        "tle_line1": "1 32200U 99025CUW 25358.60564457  .00001796  00000+0  93040-3 0  9993",
        "tle_line2": "2 32200  98.7894  47.4141 0039984 255.3373 104.3367 14.15742565945312"
      },
      "geometry": {
        "type": "Point",
        "coordinates": [
          67.60072837046454,
          -63.95557676533186
        ]
      }
    },
    {
      "type": "Feature",
      "properties": {
        "norad_id": 32203,
        "name": "FENGYUN 1C DEB",
        "group": "fengyun-1c-debris",
        "lat": 58.810926507861545,
        "lon": 83.05372023988576,
        "alt_km": 412.4570942090586,
        "timestamp": "2025-12-26T08:37:54.866142+00:00",
        "meta_object_name": "FENGYUN 1C DEB",
        "meta_object_id": "1999-025CUZ",
        "meta_epoch": "2025-12-25T04:05:18.053376",
        "meta_mean_motion": 15.41879981,
        "meta_eccentricity": 0.0141245,
        "meta_inclination": 97.015,
        "meta_ra_of_asc_node": 250.173,
        "meta_arg_of_pericenter": 47.2615,
        "meta_mean_anomaly": 314.0419,
        "meta_ephemeris_type": 0,
        "meta_classification_type": "U",
        "meta_norad_cat_id": 32203,
        "meta_element_set_no": 999,
        "meta_rev_at_epoch": 75289,
        "meta_bstar": 0.00083734,
        "meta_mean_motion_dot": 0.00051384,
        "meta_mean_motion_ddot": 0,
        "tle_line1": "1 32203U 99025CUZ 25359.17034784  .00051384  00000+0  83734-3 0  9991",
        "tle_line2": "2 32203  97.0150 250.1730 0141245  47.2615 314.0419 15.41879981752890"
      },
      "geometry": {
        "type": "Point",
        "coordinates": [
          83.05372023988576,
          58.810926507861545
        ]
      }
    },
    {
      "type": "Feature",
      "properties": {
        "norad_id": 32205,
        "name": "FENGYUN 1C DEB",
        "group": "fengyun-1c-debris",
        "lat": 1.2407781809047649,
        "lon": -175.94951159121356,
        "alt_km": 846.361506272995,
        "timestamp": "2025-12-26T08:37:54.866153+00:00",
        "meta_object_name": "FENGYUN 1C DEB",
        "meta_object_id": "1999-025CVB",
        "meta_epoch": "2025-12-25T12:07:28.906752",
        "meta_mean_motion": 14.13919478,
        "meta_eccentricity": 0.0010051,
        "meta_inclination": 98.6781,
        "meta_ra_of_asc_node": 3.0315,
        "meta_arg_of_pericenter": 252.0672,
        "meta_mean_anomaly": 259.7759,
        "meta_ephemeris_type": 0,
        "meta_classification_type": "U",
        "meta_norad_cat_id": 32205,
        "meta_element_set_no": 999,
        "meta_rev_at_epoch": 94678,
        "meta_bstar": 0.00016074,
        "meta_mean_motion_dot": 2.62e-06,
        "meta_mean_motion_ddot": 0,
        "tle_line1": "1 32205U 99025CVB 25359.50519568  .00000262  00000+0  16074-3 0  9990",
        "tle_line2": "2 32205  98.6781   3.0315 0010051 252.0672 259.7759 14.13919478946781"
      },
      "geometry": {
        "type": "Point",
        "coordinates": [
          -175.94951159121356,
          1.2407781809047649
        ]
      }
    },
    {
      "type": "Feature",
      "properties": {
        "norad_id": 32207,
        "name": "FENGYUN 1C DEB",
        "group": "fengyun-1c-debris",
        "lat": 80.04137668365881,
        "lon": -120.71504560949498,
        "alt_km": 692.092728931927,
        "timestamp": "2025-12-26T08:37:54.866163+00:00",
        "meta_object_name": "FENGYUN 1C DEB",
        "meta_object_id": "1999-025CVD",
        "meta_epoch": "2025-12-24T03:08:15.079776",
        "meta_mean_motion": 14.39594058,
        "meta_eccentricity": 0.00857499,
        "meta_inclination": 99.8579,
        "meta_ra_of_asc_node": 318.7475,
        "meta_arg_of_pericenter": 105.1549,
        "meta_mean_anomaly": 318.4883,
        "meta_ephemeris_type": 0,
        "meta_classification_type": "U",
        "meta_norad_cat_id": 32207,
        "meta_element_set_no": 999,
        "meta_rev_at_epoch": 64471,
        "meta_bstar": 0.00030810489,
        "meta_mean_motion_dot": 9.47e-06,
        "meta_mean_motion_ddot": 0,
        "tle_line1": "1 32207U 99025CVD 25358.13073009  .00000947  00000+0  30810-3 0  9999",
        "tle_line2": "2 32207  99.8579 318.7475 0085749 105.1549 318.4883 14.39594058644711"
      },
      "geometry": {
        "type": "Point",
        "coordinates": [
          -120.71504560949498,
          80.04137668365881
        ]
      }
    },
    {
      "type": "Feature",
      "properties": {
        "norad_id": 32209,
        "name": "FENGYUN 1C DEB",
        "group": "fengyun-1c-debris",
        "lat": 59.241876393152964,
        "lon": 143.20091536025382,
        "alt_km": 1224.5989537102068,
        "timestamp": "2025-12-26T08:37:54.866173+00:00",
        "meta_object_name": "FENGYUN 1C DEB",
        "meta_object_id": "1999-025CVF",
        "meta_epoch": "2025-12-16T19:55:00.323040",
        "meta_mean_motion": 13.47189962,
        "meta_eccentricity": 0.0333308,
        "meta_inclination": 99.4209,
        "meta_ra_of_asc_node": 298.0158,
        "meta_arg_of_pericenter": 15.1266,
        "meta_mean_anomaly": 345.9549,
        "meta_ephemeris_type": 0,
        "meta_classification_type": "U",
        "meta_norad_cat_id": 32209,
        "meta_element_set_no": 999,
        "meta_rev_at_epoch": 90031,
        "meta_bstar": 0.0022098107,
        "meta_mean_motion_dot": 1.847e-05,
        "meta_mean_motion_ddot": 0,
        "tle_line1": "1 32209U 99025CVF 25350.82986485  .00001847  00000+0  22098-2 0  9998",
        "tle_line2": "2 32209  99.4209 298.0158 0333308  15.1266 345.9549 13.47189962900317"
      },
      "geometry": {
        "type": "Point",
        "coordinates": [
          143.20091536025382,
          59.241876393152964
        ]
      }
    }
  ]
}